KUIPER-00035            
1 63748U 25088AA  25202.86234077  .00009545  00000+0  53696-3 0  9993
2 63748  51.8799  57.9128 0004053  70.2311 289.9103 15.13876561 13286
KUIPER-00037            
1 63749U 25088AB  25202.88825841  .00010882  00000+0  58866-3 0  9991
2 63749  51.8841  57.2288 0003127 352.1134   7.9793 15.15134882 14088
KUIPER-00038            
1 63750U 25088AC  25202.85050993  .00014110  00000+0  38539-3 0  9991
2 63750  51.8718  52.6254 0004741  58.2327 301.9121 15.37659062 13140
KUIPER-00039            
1 64500U 25134A   25202.71390103  .00019160  00000+0  56750-3 0  9997
2 64500  51.8667 194.8635 0007401 217.2969 142.7503 15.34862778  5585
KUIPER-00040            
1 64501U 25134B   25202.91670139 -.00330158  00000+0 -11997-1 0  9997
2 64501  51.8662 194.1771 0010880 227.7337  37.8004 15.29098898  4470
KUIPER-00041            
1 64502U 25134C   25202.91670139 -.00833528  00000+0 -34498-1 0  9998
2 64502  51.8698 194.2054 0008045 227.1199 359.5820 15.26072458  5141
KUIPER-00042            
1 64503U 25134D   25202.39377853  .00021029  00000+0  62696-3 0  9994
2 64503  51.8650 196.4615 0008637 215.1595 144.8821 15.34584482  5534
KUIPER-00043            
1 64504U 25134E   25202.25950354  .00025847  00000+0  76323-3 0  9997
2 64504  51.8694 197.0714 0007737 207.9059 152.1512 15.34769261  5511
